INSERT INTO CustomerAddress (CustomerID,AddressType,Address,City,Region,PostalCode,Country) VALUES(1,'Home','5013 Tomscot Terrace','Buzhakan','KZ-VOS',,'Serbia')
INSERT INTO CustomerAddress (CustomerID,AddressType,Address,City,Region,PostalCode,Country) VALUES(2,'Home','179 Mcguire Road','Lere','AR-R',,'China')
INSERT INTO CustomerAddress (CustomerID,AddressType,Address,City,Region,PostalCode,Country) VALUES(3,'Work','535 Riverside Pass','Stratford','US-GA',,'China')
INSERT INTO CustomerAddress (CustomerID,AddressType,Address,City,Region,PostalCode,Country) VALUES(4,'Work','7857 Darwin Crossing','Krajan','GT-PE',,'Indonesia')
INSERT INTO CustomerAddress (CustomerID,AddressType,Address,City,Region,PostalCode,Country) VALUES(5,'Work','05974 Packers Avenue','Beberibe','US-HI',12006,'Guatemala')
INSERT INTO CustomerAddress (CustomerID,AddressType,Address,City,Region,PostalCode,Country) VALUES(6,'Work','37668 Arizona Drive','Baisha','US-WA',461639,'Russia')
INSERT INTO CustomerAddress (CustomerID,AddressType,Address,City,Region,PostalCode,Country) VALUES(7,'Home','2026 Independence Lane','Bāzārak','US-WY',,'Indonesia')
INSERT INTO CustomerAddress (CustomerID,AddressType,Address,City,Region,PostalCode,Country) VALUES(8,'Home','9 Schiller Pass','La Esperanza','CN-14',,'Peru')
INSERT INTO CustomerAddress (CustomerID,AddressType,Address,City,Region,PostalCode,Country) VALUES(9,'Work','562 Acker Hill','Ridderkerk','US-AK',5004,'Guatemala')
INSERT INTO CustomerAddress (CustomerID,AddressType,Address,City,Region,PostalCode,Country) VALUES(10,'Home','33397 Bartillon Terrace','Caldono','SB-RB',71049,'Lithuania')
INSERT INTO CustomerAddress (CustomerID,AddressType,Address,City,Region,PostalCode,Country) VALUES(11,'Work','24 Butternut Circle','Leleque','ZW-MN',3700-819,'Portugal')
INSERT INTO CustomerAddress (CustomerID,AddressType,Address,City,Region,PostalCode,Country) VALUES(12,'Home','24297 Butterfield Place','Xiaochi','CO-SUC',607745,'Russia')
INSERT INTO CustomerAddress (CustomerID,AddressType,Address,City,Region,PostalCode,Country) VALUES(13,'Work','80 Lighthouse Bay Road','Velké Losiny','CD-KW',517 42,'Czech Republic')
INSERT INTO CustomerAddress (CustomerID,AddressType,Address,City,Region,PostalCode,Country) VALUES(14,'Home','71 Welch Point','El Paso','US-NV',,'China')
INSERT INTO CustomerAddress (CustomerID,AddressType,Address,City,Region,PostalCode,Country) VALUES(15,'Home','76429 Monument Crossing','São João da Barra','CA-NU',7020,'Philippines')
INSERT INTO CustomerAddress (CustomerID,AddressType,Address,City,Region,PostalCode,Country) VALUES(16,'Home','057 Mitchell Alley','Aygavan','US-VA',663214,'Russia')
INSERT INTO CustomerAddress (CustomerID,AddressType,Address,City,Region,PostalCode,Country) VALUES(17,'Home','01666 Shoshone Court','Maopingchang','CH-TI',,'China')
INSERT INTO CustomerAddress (CustomerID,AddressType,Address,City,Region,PostalCode,Country) VALUES(18,'Home','4224 Service Junction','Nyuksenitsa','BD-3',,'Guinea')
INSERT INTO CustomerAddress (CustomerID,AddressType,Address,City,Region,PostalCode,Country) VALUES(19,'Home','15165 Stang Lane','Arnaía','CF-HM',,'China')
INSERT INTO CustomerAddress (CustomerID,AddressType,Address,City,Region,PostalCode,Country) VALUES(20,'Work','5 Hintze Avenue','Margen','US-AK',,'Indonesia')
INSERT INTO CustomerAddress (CustomerID,AddressType,Address,City,Region,PostalCode,Country) VALUES(21,'Work','61353 Prentice Plaza','Al Jīb','US-MI',9404,'Hungary')
INSERT INTO CustomerAddress (CustomerID,AddressType,Address,City,Region,PostalCode,Country) VALUES(22,'Home','11011 Harper Terrace','Changping','US-AZ',98-430,'Poland')
INSERT INTO CustomerAddress (CustomerID,AddressType,Address,City,Region,PostalCode,Country) VALUES(23,'Home','624 Novick Point','Balakliya','AU-NT',98600,'Wallis and Futuna')
INSERT INTO CustomerAddress (CustomerID,AddressType,Address,City,Region,PostalCode,Country) VALUES(24,'Home','91315 Dennis Center','Velyka Oleksandrivka','ZA-NP',,'Indonesia')
INSERT INTO CustomerAddress (CustomerID,AddressType,Address,City,Region,PostalCode,Country) VALUES(25,'Work','07883 Toban Crossing','Nay Pyi Taw','DO-18',,'China')
INSERT INTO CustomerAddress (CustomerID,AddressType,Address,City,Region,PostalCode,Country) VALUES(26,'Home','85690 Dwight Road','Vysokogornyy','CN-61',12030 CEDEX 9,'France')
INSERT INTO CustomerAddress (CustomerID,AddressType,Address,City,Region,PostalCode,Country) VALUES(27,'Home','3 Fuller Hill','Los Palacios','CO-ANT',699-4502,'Japan')
INSERT INTO CustomerAddress (CustomerID,AddressType,Address,City,Region,PostalCode,Country) VALUES(28,'Home','88013 Anzinger Hill','Lianshi','AU-WA',729-5122,'Japan')
INSERT INTO CustomerAddress (CustomerID,AddressType,Address,City,Region,PostalCode,Country) VALUES(29,'Home','79 Talisman Street','Barcelona','RU-TOM',3805,'Netherlands')
INSERT INTO CustomerAddress (CustomerID,AddressType,Address,City,Region,PostalCode,Country) VALUES(30,'Home','9 Valley Edge Court','Rancagua','BR-SP',,'Iran')
INSERT INTO CustomerAddress (CustomerID,AddressType,Address,City,Region,PostalCode,Country) VALUES(31,'Home','3 Northwestern Road','Atocha','US-MT',664-0846,'Japan')
INSERT INTO CustomerAddress (CustomerID,AddressType,Address,City,Region,PostalCode,Country) VALUES(32,'Home','67 Oak Valley Hill','Rättvik','ZA-NP',,'China')
INSERT INTO CustomerAddress (CustomerID,AddressType,Address,City,Region,PostalCode,Country) VALUES(33,'Work','48 Ridgeview Hill','Ventersdorp','US-RI',89102 CEDEX,'France')
INSERT INTO CustomerAddress (CustomerID,AddressType,Address,City,Region,PostalCode,Country) VALUES(34,'Work','84 Waubesa Alley','Labney','PH-AUR',,'Ghana')
INSERT INTO CustomerAddress (CustomerID,AddressType,Address,City,Region,PostalCode,Country) VALUES(35,'Home','96 Anzinger Avenue','Astorga','IR-15',,'China')
INSERT INTO CustomerAddress (CustomerID,AddressType,Address,City,Region,PostalCode,Country) VALUES(36,'Home','09894 Hooker Alley','Umeå','US-TX',,'Mozambique')
INSERT INTO CustomerAddress (CustomerID,AddressType,Address,City,Region,PostalCode,Country) VALUES(37,'Home','6 Forest Run Terrace','Ḑawrān ad Daydah','KE-700',42-152,'Poland')
INSERT INTO CustomerAddress (CustomerID,AddressType,Address,City,Region,PostalCode,Country) VALUES(38,'Home','963 Pawling Way','Sidem','CA-PE',24120,'Thailand')
INSERT INTO CustomerAddress (CustomerID,AddressType,Address,City,Region,PostalCode,Country) VALUES(39,'Home','3 Miller Drive','Nahariya','PG-NPP',,'China')
INSERT INTO CustomerAddress (CustomerID,AddressType,Address,City,Region,PostalCode,Country) VALUES(40,'Home','3161 Maywood Way','San Vicente','FR-B',444038,'Colombia')
INSERT INTO CustomerAddress (CustomerID,AddressType,Address,City,Region,PostalCode,Country) VALUES(41,'Work','08374 Spenser Junction','Nagrak','VN-15',67404 CEDEX,'France')
INSERT INTO CustomerAddress (CustomerID,AddressType,Address,City,Region,PostalCode,Country) VALUES(42,'Home','028 Summerview Point','Perfilovo','RU-SA',2446,'Philippines')
INSERT INTO CustomerAddress (CustomerID,AddressType,Address,City,Region,PostalCode,Country) VALUES(43,'Work','0 Commercial Terrace','Lyon','OM-MA',5098,'Norway')
INSERT INTO CustomerAddress (CustomerID,AddressType,Address,City,Region,PostalCode,Country) VALUES(44,'Home','4 Eliot Crossing','Gifu-shi','US-CA',,'China')
INSERT INTO CustomerAddress (CustomerID,AddressType,Address,City,Region,PostalCode,Country) VALUES(45,'Work','37781 Kim Lane','Even Yehuda','AU-VIC',,'China')
INSERT INTO CustomerAddress (CustomerID,AddressType,Address,City,Region,PostalCode,Country) VALUES(46,'Home','86 Ronald Regan Center','Ocote Paulino','GL-U-A',655735,'Russia')
INSERT INTO CustomerAddress (CustomerID,AddressType,Address,City,Region,PostalCode,Country) VALUES(47,'Home','403 Rusk Road','San Francisco','US-SC',,'Indonesia')
INSERT INTO CustomerAddress (CustomerID,AddressType,Address,City,Region,PostalCode,Country) VALUES(48,'Home','00372 Mandrake Court','Pakapasan Ilir','RU-IN',,'Kenya')
INSERT INTO CustomerAddress (CustomerID,AddressType,Address,City,Region,PostalCode,Country) VALUES(49,'Home','78 Stuart Plaza','Sukhinichi','IL-Z',4705-722,'Portugal')
INSERT INTO CustomerAddress (CustomerID,AddressType,Address,City,Region,PostalCode,Country) VALUES(50,'Home','57613 Helena Place','Bahía Blanca','US-ND',,'China')
INSERT INTO CustomerAddress (CustomerID,AddressType,Address,City,Region,PostalCode,Country) VALUES(51,'Home','7850 Scott Trail','Shamva','AU-QLD',,'Bosnia and Herzegovina')
INSERT INTO CustomerAddress (CustomerID,AddressType,Address,City,Region,PostalCode,Country) VALUES(52,'Home','20341 Johnson Junction','Rychwał','AR-U',,'Indonesia')
INSERT INTO CustomerAddress (CustomerID,AddressType,Address,City,Region,PostalCode,Country) VALUES(53,'Work','5 Fuller Place','Medang','CA-QC',,'Vietnam')
INSERT INTO CustomerAddress (CustomerID,AddressType,Address,City,Region,PostalCode,Country) VALUES(54,'Work','0 Caliangt Plaza','Shuitou','CA-MB',663740,'Russia')
INSERT INTO CustomerAddress (CustomerID,AddressType,Address,City,Region,PostalCode,Country) VALUES(55,'Home','4 Thackeray Trail','Sult','AU-QLD',,'China')
INSERT INTO CustomerAddress (CustomerID,AddressType,Address,City,Region,PostalCode,Country) VALUES(56,'Work','7 Sauthoff Hill','Kaliuling','PG-SAN',431 10,'Sweden')
INSERT INTO CustomerAddress (CustomerID,AddressType,Address,City,Region,PostalCode,Country) VALUES(57,'Home','6165 Ilene Road','Panjerrejo','BR-RS',8536,'Argentina')
INSERT INTO CustomerAddress (CustomerID,AddressType,Address,City,Region,PostalCode,Country) VALUES(58,'Home','766 Calypso Pass','Woshui','HR-08',10303,'Costa Rica')
INSERT INTO CustomerAddress (CustomerID,AddressType,Address,City,Region,PostalCode,Country) VALUES(59,'Home','6 Toban Road','Brušperk','US-LA',,'China')
INSERT INTO CustomerAddress (CustomerID,AddressType,Address,City,Region,PostalCode,Country) VALUES(60,'Home','043 Fairfield Hill','Sampaloc','BR-MT',1865,'Denmark')
INSERT INTO CustomerAddress (CustomerID,AddressType,Address,City,Region,PostalCode,Country) VALUES(61,'Home','825 Becker Trail','Bergen','BA-BIH',11830,'Sri Lanka')
INSERT INTO CustomerAddress (CustomerID,AddressType,Address,City,Region,PostalCode,Country) VALUES(62,'Work','2 Memorial Crossing','Berlin','KM-G',646575,'Russia')
INSERT INTO CustomerAddress (CustomerID,AddressType,Address,City,Region,PostalCode,Country) VALUES(63,'Home','799 Maywood Parkway','Binjai','ID-JA',,'Indonesia')
INSERT INTO CustomerAddress (CustomerID,AddressType,Address,City,Region,PostalCode,Country) VALUES(64,'Home','135 Basil Pass','Yeşilköy','BR-BA',238450,'Russia')
INSERT INTO CustomerAddress (CustomerID,AddressType,Address,City,Region,PostalCode,Country) VALUES(65,'Work','21549 Village Green Plaza','Tongquan','PG-MPL',6305,'Philippines')
INSERT INTO CustomerAddress (CustomerID,AddressType,Address,City,Region,PostalCode,Country) VALUES(66,'Home','3 Straubel Place','Dolod','CA-YT',,'Indonesia')
INSERT INTO CustomerAddress (CustomerID,AddressType,Address,City,Region,PostalCode,Country) VALUES(67,'Work','9 Forest Run Center','Liuqu','US-MT',68517,'United States')
INSERT INTO CustomerAddress (CustomerID,AddressType,Address,City,Region,PostalCode,Country) VALUES(68,'Home','2287 Vahlen Parkway','Khlong Sam Wa','EG-MT',,'Ukraine')
INSERT INTO CustomerAddress (CustomerID,AddressType,Address,City,Region,PostalCode,Country) VALUES(69,'Home','03114 Scoville Plaza','Demir Hisar','PK-PB',5600,'Argentina')
INSERT INTO CustomerAddress (CustomerID,AddressType,Address,City,Region,PostalCode,Country) VALUES(70,'Home','5080 Randy Parkway','Uddiawan','US-CA',,'China')
INSERT INTO CustomerAddress (CustomerID,AddressType,Address,City,Region,PostalCode,Country) VALUES(71,'Home','64440 Muir Drive','Bolnisi','US-GA',,'Vietnam')
INSERT INTO CustomerAddress (CustomerID,AddressType,Address,City,Region,PostalCode,Country) VALUES(72,'Home','841 Eastwood Street','Icó','PG-NPP',,'Indonesia')
INSERT INTO CustomerAddress (CustomerID,AddressType,Address,City,Region,PostalCode,Country) VALUES(73,'Work','1427 Beilfuss Terrace','Ribnica na Pohorju','ET-SO',,'China')
INSERT INTO CustomerAddress (CustomerID,AddressType,Address,City,Region,PostalCode,Country) VALUES(74,'Work','1508 Sheridan Terrace','Mellila','PK-PB',,'China')
INSERT INTO CustomerAddress (CustomerID,AddressType,Address,City,Region,PostalCode,Country) VALUES(75,'Home','2737 Ramsey Point','Ulanov','RU-KO',475-0803,'Japan')
INSERT INTO CustomerAddress (CustomerID,AddressType,Address,City,Region,PostalCode,Country) VALUES(76,'Home','2 Cordelia Plaza','Pergamos','US-MD',4755-211,'Portugal')
INSERT INTO CustomerAddress (CustomerID,AddressType,Address,City,Region,PostalCode,Country) VALUES(77,'Work','78169 Merry Trail','Pampa de los Guanacos','KE-700',353650,'Russia')
INSERT INTO CustomerAddress (CustomerID,AddressType,Address,City,Region,PostalCode,Country) VALUES(78,'Home','3 Del Sol Avenue','Shangyong','RU-IRK',55636-000,'Brazil')
INSERT INTO CustomerAddress (CustomerID,AddressType,Address,City,Region,PostalCode,Country) VALUES(79,'Home','647 Amoth Lane','Swift Current','GN-F',,'Ukraine')
INSERT INTO CustomerAddress (CustomerID,AddressType,Address,City,Region,PostalCode,Country) VALUES(80,'Home','08053 International Pass','Yonkers','DE-HB',59208 CEDEX,'France')
INSERT INTO CustomerAddress (CustomerID,AddressType,Address,City,Region,PostalCode,Country) VALUES(81,'Home','109 Jana Terrace','Dūrā al Qar‘','GB-SCT',,'China')
INSERT INTO CustomerAddress (CustomerID,AddressType,Address,City,Region,PostalCode,Country) VALUES(82,'Home','207 Comanche Place','Cherbourg-Octeville','CF-OP',368580,'Russia')
INSERT INTO CustomerAddress (CustomerID,AddressType,Address,City,Region,PostalCode,Country) VALUES(83,'Home','50227 Judy Hill','Bisert’','MR-08',51468,'Colombia')
INSERT INTO CustomerAddress (CustomerID,AddressType,Address,City,Region,PostalCode,Country) VALUES(84,'Home','49622 Mifflin Way','Chacapalpa','US-NE',91851 CEDEX,'France')
INSERT INTO CustomerAddress (CustomerID,AddressType,Address,City,Region,PostalCode,Country) VALUES(85,'Work','21 Elgar Parkway','Shanghuang','VE-K',,'Israel')
INSERT INTO CustomerAddress (CustomerID,AddressType,Address,City,Region,PostalCode,Country) VALUES(86,'Work','3265 Victoria Plaza','Usquil','PG-WBK',,'Indonesia')
INSERT INTO CustomerAddress (CustomerID,AddressType,Address,City,Region,PostalCode,Country) VALUES(87,'Home','9927 Barnett Pass','Yelenendorf','AU-QLD',94946 CEDEX 9,'France')
INSERT INTO CustomerAddress (CustomerID,AddressType,Address,City,Region,PostalCode,Country) VALUES(88,'Home','493 North Center','Salwá','DZ-07',,'China')
INSERT INTO CustomerAddress (CustomerID,AddressType,Address,City,Region,PostalCode,Country) VALUES(89,'Home','3 Debs Lane','Shuishiying','ID-SB',9510,'Philippines')
INSERT INTO CustomerAddress (CustomerID,AddressType,Address,City,Region,PostalCode,Country) VALUES(90,'Work','7 6th Court','Nakhabino','IL-D',,'Peru')
INSERT INTO CustomerAddress (CustomerID,AddressType,Address,City,Region,PostalCode,Country) VALUES(91,'Home','55 Florence Hill','Ringim','TR-10',,'Tanzania')
INSERT INTO CustomerAddress (CustomerID,AddressType,Address,City,Region,PostalCode,Country) VALUES(92,'Home','6 Dapin Alley','Binzhou','TW-TTT',2811,'Philippines')
INSERT INTO CustomerAddress (CustomerID,AddressType,Address,City,Region,PostalCode,Country) VALUES(93,'Home','24 Troy Place','Taraju','US-CA',,'China')
INSERT INTO CustomerAddress (CustomerID,AddressType,Address,City,Region,PostalCode,Country) VALUES(94,'Work','15128 Brentwood Drive','Piracicaba','US-MN',,'Indonesia')
INSERT INTO CustomerAddress (CustomerID,AddressType,Address,City,Region,PostalCode,Country) VALUES(95,'Home','62047 Nevada Crossing','Imatra','CA-SK',2821,'Norway')
INSERT INTO CustomerAddress (CustomerID,AddressType,Address,City,Region,PostalCode,Country) VALUES(96,'Home','2 Eagan Junction','Putrajawa','KI-P',,'Indonesia')
INSERT INTO CustomerAddress (CustomerID,AddressType,Address,City,Region,PostalCode,Country) VALUES(97,'Home','91912 Morning Lane','Huicheng','UM-79',,'China')
INSERT INTO CustomerAddress (CustomerID,AddressType,Address,City,Region,PostalCode,Country) VALUES(98,'Home','4329 Bartelt Junction','Rakaia','PA-8',,'Tanzania')
INSERT INTO CustomerAddress (CustomerID,AddressType,Address,City,Region,PostalCode,Country) VALUES(99,'Home','03474 Mosinee Plaza','Talcahuano','US-CO',1225,'Macedonia')
INSERT INTO CustomerAddress (CustomerID,AddressType,Address,City,Region,PostalCode,Country) VALUES(100,'Work','8738 Reinke Court','Malko Tŭrnovo','KE-700',9488,'Liechtenstein')